{
    "links": {
        "self": "http://www.neowsapp.com/rest/v1/neo/3617708?api_key=iIulBulltgU6a56xZRHN4H3l9WmuAYTsLGpBGhQ2"
    },
    "id": "3617708",
    "neo_reference_id": "3617708",
    "name": "(2012 VN76)",
    "designation": "2012 VN76",
    "nasa_jpl_url": "http://ssd.jpl.nasa.gov/sbdb.cgi?sstr=3617708",
    "absolute_magnitude_h": 27.8,
    "estimated_diameter": {
        "kilometers": {
            "estimated_diameter_min": 0.0073207399,
            "estimated_diameter_max": 0.016369672
        },
        "meters": {
            "estimated_diameter_min": 7.3207398935,
            "estimated_diameter_max": 16.3696720474
        },
        "miles": {
            "estimated_diameter_min": 0.0045488955,
            "estimated_diameter_max": 0.0101716395
        },
        "feet": {
            "estimated_diameter_min": 24.0181762721,
            "estimated_diameter_max": 53.70627484
        }
    },
    "is_potentially_hazardous_asteroid": false,
    "close_approach_data": [
        {
            "close_approach_date": "2012-11-20",
            "close_approach_date_full": "2012-Nov-20 03:32",
            "epoch_date_close_approach": 1353382320000,
            "relative_velocity": {
                "kilometers_per_second": "6.7476906234",
                "kilometers_per_hour": "24291.686244388",
                "miles_per_hour": "15093.9091555754"
            },
            "miss_distance": {
                "astronomical": "0.0184813623",
                "lunar": "7.1892499347",
                "kilometers": "2764772.434778301",
                "miles": "1717949.9285745138"
            },
            "orbiting_body": "Earth"
        }
    ],
    "orbital_data": {
        "orbit_id": "5",
        "orbit_determination_date": "2017-04-06 08:48:03",
        "first_observation_date": "2012-11-13",
        "last_observation_date": "2012-11-16",
        "data_arc_in_days": 3,
        "observations_used": 12,
        "orbit_uncertainty": "8",
        "minimum_orbit_intersection": ".0109077",
        "jupiter_tisserand_invariant": "3.789",
        "epoch_osculation": "2456245.5",
        "eccentricity": ".4813572167529951",
        "semi_major_axis": "1.907562511132169",
        "inclination": "1.483481266078945",
        "ascending_node_longitude": "226.8631045605034",
        "orbital_period": "962.3135367607871",
        "perihelion_distance": ".989343529991234",
        "perihelion_argument": "208.708788612145",
        "aphelion_distance": "2.825781492273105",
        "perihelion_time": "2456265.761980454141",
        "mean_anomaly": "352.420024571156",
        "mean_motion": ".3740984473852301",
        "equinox": "J2000",
        "orbit_class": {
            "orbit_class_type": "APO",
            "orbit_class_description": "Near-Earth asteroid orbits which cross the Earth’s orbit similar to that of 1862 Apollo",
            "orbit_class_range": "a (semi-major axis) > 1.0 AU; q (perihelion) < 1.017 AU"
        }
    },
    "is_sentry_object": false
}